{
    "links": {
        "self": "http://www.neowsapp.com/rest/v1/neo/3825650?api_key=iIulBulltgU6a56xZRHN4H3l9WmuAYTsLGpBGhQ2"
    },
    "id": "3825650",
    "neo_reference_id": "3825650",
    "name": "(2018 NG4)",
    "designation": "2018 NG4",
    "nasa_jpl_url": "http://ssd.jpl.nasa.gov/sbdb.cgi?sstr=3825650",
    "absolute_magnitude_h": 22.1,
    "estimated_diameter": {
        "kilometers": {
            "estimated_diameter_min": 0.1010543415,
            "estimated_diameter_max": 0.2259643771
        },
        "meters": {
            "estimated_diameter_min": 101.054341542,
            "estimated_diameter_max": 225.9643771094
        },
        "miles": {
            "estimated_diameter_min": 0.0627922373,
            "estimated_diameter_max": 0.140407711
        },
        "feet": {
            "estimated_diameter_min": 331.5431259047,
            "estimated_diameter_max": 741.3529669956
        }
    },
    "is_potentially_hazardous_asteroid": false,
    "close_approach_data": [
        {
            "close_approach_date": "2018-07-06",
            "close_approach_date_full": "2018-Jul-06 16:23",
            "epoch_date_close_approach": 1530894180000,
            "relative_velocity": {
                "kilometers_per_second": "19.9129583717",
                "kilometers_per_hour": "71686.6501382446",
                "miles_per_hour": "44543.2965817331"
            },
            "miss_distance": {
                "astronomical": "0.0599669492",
                "lunar": "23.3271432388",
                "kilometers": "8970927.870718204",
                "miles": "5574276.0962470552"
            },
            "orbiting_body": "Earth"
        }
    ],
    "orbital_data": {
        "orbit_id": "6",
        "orbit_determination_date": "2018-09-10 06:54:53",
        "first_observation_date": "2018-07-12",
        "last_observation_date": "2018-08-09",
        "data_arc_in_days": 28,
        "observations_used": 102,
        "orbit_uncertainty": "7",
        "minimum_orbit_intersection": ".0524356",
        "jupiter_tisserand_invariant": "3.172",
        "epoch_osculation": "2459000.5",
        "eccentricity": ".5419304203060414",
        "semi_major_axis": "2.324219143601867",
        "inclination": "33.84403524543955",
        "ascending_node_longitude": "282.3911030947902",
        "orbital_period": "1294.237674760292",
        "perihelion_distance": "1.06465408622636",
        "perihelion_argument": "8.876580588793564",
        "aphelion_distance": "3.583784200977374",
        "perihelion_time": "2459608.241034747859",
        "mean_anomaly": "190.9531728399492",
        "mean_motion": ".2781560195786112",
        "equinox": "J2000",
        "orbit_class": {
            "orbit_class_type": "AMO",
            "orbit_class_description": "Near-Earth asteroid orbits similar to that of 1221 Amor",
            "orbit_class_range": "1.017 AU < q (perihelion) < 1.3 AU"
        }
    },
    "is_sentry_object": false
}